[
    {
        "Altitude(m)": 554242.207189046,
        "Argument of Periapsis(deg)": 0.0,
        "Eccentricity": 0.0,
        "Inclination(deg)": 53.0,
        "Latitude(deg)": -0.07940073251698718,
        "Longitude(deg)": -135.02873374501354,
        "Mean Anomaly(deg)": 0.0,
        "RAAN(deg)": 325.0,
        "Satellite Name": "Starlink Shell 1 1430",
        "Satellite Number": 1430,
        "Semi-Major Axis(m)": 6931778.249405717,
        "Time(s)": 0
    },
    {
        "Altitude(m)": 554177.7910136101,
        "Argument of Periapsis(deg)": 0.00034857847951123687,
        "Eccentricity": 0.0,
        "Inclination(deg)": 53.0,
        "Latitude(deg)": 0.4245416275620977,
        "Longitude(deg)": -134.69335616362176,
        "Mean Anomaly(deg)": 0.6268312035567466,
        "RAAN(deg)": 324.9994812299225,
        "Satellite Name": "Starlink Shell 1 1430",
        "Satellite Number": 1430,
        "Semi-Major Axis(m)": 6931778.249405717,
        "Time(s)": 10
    },
    {
        "Altitude(m)": 554116.1789364595,
        "Argument of Periapsis(deg)": 0.0006971569590224737,
        "Eccentricity": 0.0,
        "Inclination(deg)": 53.0,
        "Latitude(deg)": 0.9284742637008013,
        "Longitude(deg)": -134.3579228510973,
        "Mean Anomaly(deg)": 1.2536624071134421,
        "RAAN(deg)": 324.9989624598451,
        "Satellite Name": "Starlink Shell 1 1430",
        "Satellite Number": 1430,
        "Semi-Major Axis(m)": 6931778.249405717,
        "Time(s)": 20
    },
    {
        "Altitude(m)": 554057.377129667,
        "Argument of Periapsis(deg)": 0.0010457354385337105,
        "Eccentricity": 0.0,
        "Inclination(deg)": 53.0,
        "Latitude(deg)": 1.4323742673364999,
        "Longitude(deg)": -134.02237625327152,
        "Mean Anomaly(deg)": 1.8804936106701375,
        "RAAN(deg)": 324.99844368976756,
        "Satellite Name": "Starlink Shell 1 1430",
        "Satellite Number": 1430,
        "Semi-Major Axis(m)": 6931778.249405717,
        "Time(s)": 30
    },
    {
        "Altitude(m)": 554001.390409011,
        "Argument of Periapsis(deg)": 0.0013943139180449475,
        "Eccentricity": 0.0,
        "Inclination(deg)": 53.0,
        "Latitude(deg)": 1.9362187045905817,
        "Longitude(deg)": -133.6866582595184,
        "Mean Anomaly(deg)": 2.5073248142268336,
        "RAAN(deg)": 324.99792491969004,
        "Satellite Name": "Starlink Shell 1 1430",
        "Satellite Number": 1430,
        "Semi-Major Axis(m)": 6931778.249405717,
        "Time(s)": 40
    },
    {
        "Altitude(m)": 553948.222234336,
        "Argument of Periapsis(deg)": 0.0017428923975561844,
        "Eccentricity": 0.0,
        "Inclination(deg)": 53.0,
        "Latitude(deg)": 2.439984604556595,
        "Longitude(deg)": -133.35071118608005,
        "Mean Anomaly(deg)": 3.13415601778358,
        "RAAN(deg)": 324.99740614961263,
        "Satellite Name": "Starlink Shell 1 1430",
        "Satellite Number": 1430,
        "Semi-Major Axis(m)": 6931778.249405717,
        "Time(s)": 50
    },
    {
        "Altitude(m)": 553897.8747105822,
        "Argument of Periapsis(deg)": 0.002091470877067421,
        "Eccentricity": 0.0,
        "Inclination(deg)": 53.0,
        "Latitude(deg)": 2.943648947552308,
        "Longitude(deg)": -133.01447724649128,
        "Mean Anomaly(deg)": 3.7609872213403266,
        "RAAN(deg)": 324.99688737953517,
        "Satellite Name": "Starlink Shell 1 1430",
        "Satellite Number": 1430,
        "Semi-Major Axis(m)": 6931778.249405717,
        "Time(s)": 60
    },
    {
        "Altitude(m)": 553850.3485895265,
        "Argument of Periapsis(deg)": 0.0024400493565786582,
        "Eccentricity": 0.0,
        "Inclination(deg)": 53.0,
        "Latitude(deg)": 3.4471886533259535,
        "Longitude(deg)": -132.67789802197004,
        "Mean Anomaly(deg)": 4.387818424896971,
        "RAAN(deg)": 324.99636860945765,
        "Satellite Name": "Starlink Shell 1 1430",
        "Satellite Number": 1430,
        "Semi-Major Axis(m)": 6931778.249405717,
        "Time(s)": 70
    },
    {
        "Altitude(m)": 553805.6432721533,
        "Argument of Periapsis(deg)": 0.002788627836089895,
        "Eccentricity": 0.0,
        "Inclination(deg)": 53.0,
        "Latitude(deg)": 3.9505805692079217,
        "Longitude(deg)": -132.3409154446397,
        "Mean Anomaly(deg)": 5.014649628453718,
        "RAAN(deg)": 324.99584983938024,
        "Satellite Name": "Starlink Shell 1 1430",
        "Satellite Number": 1430,
        "Semi-Major Axis(m)": 6931778.249405717,
        "Time(s)": 80
    },
    {
        "Altitude(m)": 553763.7568117387,
        "Argument of Periapsis(deg)": 0.0031372063156011316,
        "Eccentricity": 0.0,
        "Inclination(deg)": 53.0,
        "Latitude(deg)": 4.453801458191629,
        "Longitude(deg)": -132.00347126782972,
        "Mean Anomaly(deg)": 5.641480832010414,
        "RAAN(deg)": 324.9953310693027,
        "Satellite Name": "Starlink Shell 1 1430",
        "Satellite Number": 1430,
        "Semi-Major Axis(m)": 6931778.249405717,
        "Time(s)": 90
    },
    {
        "Altitude(m)": 553724.6859175917,
        "Argument of Periapsis(deg)": 0.0034857847951123688,
        "Eccentricity": 0.0,
        "Inclination(deg)": 53.0,
        "Latitude(deg)": 4.956827986935157,
        "Longitude(deg)": -131.66550653632,
        "Mean Anomaly(deg)": 6.26831203556716,
        "RAAN(deg)": 324.99481229922526,
        "Satellite Name": "Starlink Shell 1 1430",
        "Satellite Number": 1430,
        "Semi-Major Axis(m)": 6931778.249405717,
        "Time(s)": 100
    },
    {
        "Altitude(m)": 553688.4259594567,
        "Argument of Periapsis(deg)": 0.003834363274623606,
        "Eccentricity": 0.0,
        "Inclination(deg)": 53.0,
        "Latitude(deg)": 5.45963671367368,
        "Longitude(deg)": -131.326962569398,
        "Mean Anomaly(deg)": 6.8951432391239065,
        "RAAN(deg)": 324.9942935291478,
        "Satellite Name": "Starlink Shell 1 1430",
        "Satellite Number": 1430,
        "Semi-Major Axis(m)": 6931778.249405717,
        "Time(s)": 110
    },
    {
        "Altitude(m)": 553654.9709726023,
        "Argument of Periapsis(deg)": 0.004182941754134842,
        "Eccentricity": 0.0,
        "Inclination(deg)": 53.0,
        "Latitude(deg)": 5.962204076027183,
        "Longitude(deg)": -130.98778043097406,
        "Mean Anomaly(deg)": 7.52197444268055,
        "RAAN(deg)": 324.9937747590703,
        "Satellite Name": "Starlink Shell 1 1430",
        "Satellite Number": 1430,
        "Semi-Major Axis(m)": 6931778.249405717,
        "Time(s)": 120
    },
    {
        "Altitude(m)": 553624.3136635692,
        "Argument of Periapsis(deg)": 0.004531520233646079,
        "Eccentricity": 0.0,
        "Inclination(deg)": 53.0,
        "Latitude(deg)": 6.464506378694266,
        "Longitude(deg)": -130.6479003996236,
        "Mean Anomaly(deg)": 8.148805646237298,
        "RAAN(deg)": 324.9932559889928,
        "Satellite Name": "Starlink Shell 1 1430",
        "Satellite Number": 1430,
        "Semi-Major Axis(m)": 6931778.249405717,
        "Time(s)": 130
    },
    {
        "Altitude(m)": 553596.445416568,
        "Argument of Periapsis(deg)": 0.0048800987131573164,
        "Eccentricity": 0.0,
        "Inclination(deg)": 53.0,
        "Latitude(deg)": 6.966519781021904,
        "Longitude(deg)": -130.30726295142458,
        "Mean Anomaly(deg)": 8.775636849793994,
        "RAAN(deg)": 324.9927372189154,
        "Satellite Name": "Starlink Shell 1 1430",
        "Satellite Number": 1430,
        "Semi-Major Axis(m)": 6931778.249405717,
        "Time(s)": 140
    },
    {
        "Altitude(m)": 553571.3563005533,
        "Argument of Periapsis(deg)": 0.005228677192668553,
        "Eccentricity": 0.0,
        "Inclination(deg)": 53.0,
        "Latitude(deg)": 7.468220284436035,
        "Longitude(deg)": -129.9658082298381,
        "Mean Anomaly(deg)": 9.40246805335074,
        "RAAN(deg)": 324.9922184488379,
        "Satellite Name": "Starlink Shell 1 1430",
        "Satellite Number": 1430,
        "Semi-Major Axis(m)": 6931778.249405717,
        "Time(s)": 150
    },
    {
        "Altitude(m)": 553549.0350769383,
        "Argument of Periapsis(deg)": 0.00557725567217979,
        "Eccentricity": 0.0,
        "Inclination(deg)": 53.0,
        "Latitude(deg)": 7.969583719722855,
        "Longitude(deg)": -129.62347551550315,
        "Mean Anomaly(deg)": 10.029299256907436,
        "RAAN(deg)": 324.99169967876037,
        "Satellite Name": "Starlink Shell 1 1430",
        "Satellite Number": 1430,
        "Semi-Major Axis(m)": 6931778.249405717,
        "Time(s)": 160
    },
    {
        "Altitude(m)": 553529.469207953,
        "Argument of Periapsis(deg)": 0.0059258341516910265,
        "Eccentricity": 0.0,
        "Inclination(deg)": 53.0,
        "Latitude(deg)": 8.470585734151378,
        "Longitude(deg)": -129.2802042088136,
        "Mean Anomaly(deg)": 10.65613046046413,
        "RAAN(deg)": 324.99118090868296,
        "Satellite Name": "Starlink Shell 1 1430",
        "Satellite Number": 1430,
        "Semi-Major Axis(m)": 6931778.249405717,
        "Time(s)": 170
    },
    {
        "Altitude(m)": 553512.6448656687,
        "Argument of Periapsis(deg)": 0.006274412631202263,
        "Eccentricity": 0.0,
        "Inclination(deg)": 53.0,
        "Latitude(deg)": 8.971201778420745,
        "Longitude(deg)": -128.93593329953129,
        "Mean Anomaly(deg)": 11.282961664020878,
        "RAAN(deg)": 324.9906621386055,
        "Satellite Name": "Starlink Shell 1 1430",
        "Satellite Number": 1430,
        "Semi-Major Axis(m)": 6931778.249405717,
        "Time(s)": 180
    }
]